NORAD_CAT_ID,OBJECT_NAME,OBJECT_TYPE,EPOCH,MEAN_MOTION,ECCENTRICITY,INCLINATION,RA_OF_ASC_NODE,ARG_OF_PERICENTER,MEAN_ANOMALY,BSTAR,MEAN_MOTION_DOT,MEAN_MOTION_DDOT,TLE_LINE0,TLE_LINE1,TLE_LINE2,SEMIMAJOR_AXIS,PERIOD,APOGEE,PERIGEE,DECAYED
55304.0,STARLINK-5318,PAYLOAD,2024-03-14 06:34:36,14.98329259,0.0002909,70.0001,53.2956,268.1495,91.9331,1.7279e-05,1.13e-06,0.0,0 STARLINK-5318,1 55304U 23010AM  24074.27403221  .00000113  00000-0  17279-4 0  9996,2 55304  70.0001  53.2956 0002909 268.1495  91.9331 14.98329259 64617,6950.195,96.107,574.082,570.038,0.0
55304.0,STARLINK-5318,PAYLOAD,2024-03-14 22:35:57,14.98330253,0.0002864,70.0002,51.6127,268.3059,91.7772,-3.0523e-05,-4.57e-06,0.0,0 STARLINK-5318,1 55304U 23010AM  24074.94163290 -.00000457  00000-0 -30523-4 0  9999,2 55304  70.0002  51.6127 0002864 268.3059  91.7772 14.98330253 64712,6950.192,96.107,574.048,570.067,0.0
55304.0,STARLINK-5318,PAYLOAD,2024-03-15 05:00:29,14.98329202,0.0002777,70.0005,50.9388,265.2764,94.8078,-2.1473e-05,-3.49e-06,0.0,0 STARLINK-5318,1 55304U 23010AM  24075.20867308 -.00000349  00000-0 -21473-4 0  9994,2 55304  70.0005  50.9388 0002777 265.2764  94.8078 14.98329202 64443,6950.195,96.107,573.99,570.13,0.0
55304.0,STARLINK-5318,PAYLOAD,2024-03-15 22:37:57,14.98330375,0.0002876,70.0004,49.0873,269.5431,90.5398,1.5074e-05,8.7e-07,0.0,0 STARLINK-5318,1 55304U 23010AM  24075.94303100  .00000087  00000-0  15074-4 0  9997,2 55304  70.0004  49.0873 0002876 269.5431  90.5398 14.98330375 64865,6950.192,96.107,574.056,570.058,0.0
55304.0,STARLINK-5318,PAYLOAD,2024-03-16 05:02:30,14.9831382,0.0002811,70.0004,48.414,269.1578,90.9259,0.0002633,3.049e-05,0.0,0 STARLINK-5318,1 55304U 23010AM  24076.21007446  .00003049  00000-0  26330-3 0  9999,2 55304  70.0004  48.4140 0002811 269.1578  90.9259 14.98313820 64598,6950.243,96.108,574.062,570.154,0.0
55304.0,STARLINK-5318,PAYLOAD,2024-03-16 08:14:46,14.98330801,0.0002892,70.0004,48.0776,269.1875,90.8952,1.7109e-05,1.11e-06,0.0,0 STARLINK-5318,1 55304U 23010AM  24076.34359055  .00000111  00000-0  17109-4 0  9991,2 55304  70.0004  48.0776 0002892 269.1875  90.8952 14.98330801 64618,6950.19,96.107,574.065,570.045,0.0
55304.0,STARLINK-5318,PAYLOAD,2024-03-16 22:39:58,14.98330608,0.0002915,70.0004,46.5629,270.5055,89.577,1.273e-05,5.9e-07,0.0,0 STARLINK-5318,1 55304U 23010AM  24076.94443064  .00000059  00000-0  12730-4 0  9997,2 55304  70.0004  46.5629 0002915 270.5055  89.5770 14.98330608 65013,6950.191,96.107,574.082,570.03,0.0
55304.0,STARLINK-5318,PAYLOAD,2024-03-17 08:16:45,14.98345545,0.0002702,70.0011,45.5519,272.9697,87.1153,0.00020586,2.365e-05,0.0,0 STARLINK-5318,1 55304U 23010AM  24077.34497576  .00002365  00000-0  20586-3 0  9998,2 55304  70.0011  45.5519 0002702 272.9697  87.1153 14.98345545 64766,6950.145,96.106,573.888,570.132,0.0
55304.0,STARLINK-5318,PAYLOAD,2024-03-17 21:05:51,14.98329305,0.0002894,70.0014,44.2054,264.9009,95.182,3.8146e-05,3.62e-06,0.0,0 STARLINK-5318,1 55304U 23010AM  24077.87906670  .00000362  00000-0  38146-4 0  9993,2 55304  70.0014  44.2054 0002894 264.9009  95.1820 14.98329305 64844,6950.195,96.107,574.071,570.049,0.0
55304.0,STARLINK-5318,PAYLOAD,2024-03-17 22:41:59,14.98329374,0.0002921,70.0013,44.037,265.0615,95.0211,2.6638e-05,2.25e-06,0.0,0 STARLINK-5318,1 55304U 23010AM  24077.94582702  .00000225  00000-0  26638-4 0  9998,2 55304  70.0013  44.0370 0002921 265.0615  95.0211 14.98329374 65163,6950.195,96.107,574.09,570.03,0.0
55304.0,STARLINK-5318,PAYLOAD,2024-03-18 06:42:40,14.9832677,0.0002867,70.001,43.1962,262.1478,97.9356,-2.3661e-05,-3.75e-06,0.0,0 STARLINK-5318,1 55304U 23010AM  24078.27963000 -.00000375  00000-0 -23661-4 0  9990,2 55304  70.0010  43.1962 0002867 262.1478  97.9356 14.98326770 65215,6950.203,96.107,574.061,570.075,0.0
55304.0,STARLINK-5318,PAYLOAD,2024-03-18 22:44:00,14.98326535,0.000308,70.0005,41.5125,265.6502,94.4306,-5.8398e-05,-7.9e-06,0.0,0 STARLINK-5318,1 55304U 23010AM  24078.94723156 -.00000790  00000-0 -58398-4 0  9996,2 55304  70.0005  41.5125 0003080 265.6502  94.4306 14.98326535 65313,6950.204,96.107,574.209,569.928,0.0
55304.0,STARLINK-5318,PAYLOAD,2024-03-19 01:56:16,14.98328823,0.0002926,70.0011,41.1764,257.5,102.5832,-3.9768e-05,-5.67e-06,0.0,0 STARLINK-5318,1 55304U 23010AM  24079.08074959 -.00000567  00000-0 -39768-4 0  9994,2 55304  70.0011  41.1764 0002926 257.5000 102.5832 14.98328823 65021,6950.197,96.107,574.095,570.028,0.0
55304.0,STARLINK-5318,PAYLOAD,2024-03-19 06:44:40,14.98329789,0.0002735,70.0017,40.6724,254.3141,105.7716,7.8445e-06,1e-08,0.0,0 STARLINK-5318,1 55304U 23010AM  24079.28102756  .00000001  00000-0  78445-5 0  9990,2 55304  70.0017  40.6724 0002735 254.3141 105.7716 14.98329789 65361,6950.194,96.107,573.959,570.158,0.0
55304.0,STARLINK-5318,PAYLOAD,2024-03-19 21:09:52,14.98330316,0.0002818,70.0017,39.1577,255.4992,104.5854,9.1317e-05,9.97e-06,0.0,0 STARLINK-5318,1 55304U 23010AM  24079.88186282  .00000997  00000-0  91317-4 0  9998,2 55304  70.0017  39.1577 0002818 255.4992 104.5854 14.98330316 65142,6950.192,96.107,574.015,570.098,0.0
55304.0,STARLINK-5318,PAYLOAD,2024-03-20 06:46:41,14.98333984,0.0002795,70.0017,38.1476,258.3675,101.717,0.00011926,1.33e-05,0.0,0 STARLINK-5318,1 55304U 23010AM  24080.28241949  .00001330  00000-0  11926-3 0  9995,2 55304  70.0017  38.1476 0002795 258.3675 101.7170 14.98333984 65518,6950.181,96.107,573.988,570.103,0.0
55304.0,STARLINK-5318,PAYLOAD,2024-03-20 21:11:54,14.98326475,0.0002627,70.0025,36.6344,252.5594,107.5278,-8.6291e-06,-1.96e-06,0.0,0 STARLINK-5318,1 55304U 23010AM  24080.88326804 -.00000196  00000-0 -86291-5 0  9995,2 55304  70.0025  36.6344 0002627 252.5594 107.5278 14.98326475 65299,6950.204,96.107,573.895,570.243,0.0
55304.0,STARLINK-5318,PAYLOAD,2024-03-20 22:48:02,14.98324765,0.0002649,70.0024,36.4664,253.9589,106.1278,-3.0912e-05,-4.62e-06,0.0,0 STARLINK-5318,1 55304U 23010AM  24080.95002991 -.00000462  00000-0 -30912-4 0  9995,2 55304  70.0024  36.4664 0002649 253.9589 106.1278 14.98324765 65615,6950.209,96.107,573.915,570.233,0.0
55304.0,STARLINK-5318,PAYLOAD,2024-03-21 06:48:43,14.98321924,0.0002646,70.0024,35.6236,267.0459,93.0397,2.2495e-05,1.75e-06,0.0,0 STARLINK-5318,1 55304U 23010AM  24081.28383243  .00000175  00000-0  22495-4 0  9990,2 55304  70.0024  35.6236 0002646 267.0459  93.0397 14.98321924 65665,6950.218,96.108,573.922,570.244,0.0
55304.0,STARLINK-5318,PAYLOAD,2024-03-21 21:13:55,14.98333749,0.0002784,70.0015,34.1072,267.5914,92.4926,-2.0335e-05,-3.36e-06,0.0,0 STARLINK-5318,1 55304U 23010AM  24081.88466525 -.00000336  00000-0 -20335-4 0  9993,2 55304  70.0015  34.1072 0002784 267.5914  92.4926 14.98333749 65446,6950.181,96.107,573.981,570.111,0.0
55304.0,STARLINK-5318,PAYLOAD,2024-03-21 22:50:03,14.9833485,0.0002726,70.0018,33.9388,266.3346,93.7501,-3.8297e-06,-1.39e-06,0.0,0 STARLINK-5318,1 55304U 23010AM  24081.95142391 -.00000139  00000-0 -38297-5 0  9991,2 55304  70.0018  33.9388 0002726 266.3346  93.7501 14.98334850 65760,6950.178,96.107,573.938,570.148,0.0
55304.0,STARLINK-5318,PAYLOAD,2024-03-22 05:14:34,14.98342787,0.0002533,70.0018,33.2647,264.5503,95.5367,7.9674e-05,8.58e-06,0.0,0 STARLINK-5318,1 55304U 23010AM  24082.21845535  .00000858  00000-0  79674-4 0  9990,2 55304  70.0018  33.2647 0002533 264.5503  95.5367 14.98342787 65490,6950.153,96.106,573.779,570.258,0.0
55304.0,STARLINK-5318,PAYLOAD,2024-03-22 06:50:42,14.98344672,0.0002492,70.0021,33.0965,264.0512,96.0363,0.00010471,1.157e-05,0.0,0 STARLINK-5318,1 55304U 23010AM  24082.28521301  .00001157  00000-0  10471-3 0  9991,2 55304  70.0021  33.0965 0002492 264.0512  96.0363 14.98344672 65817,6950.148,96.106,573.744,570.281,0.0
55304.0,STARLINK-5318,PAYLOAD,2024-03-22 21:15:56,14.98321568,0.0002722,70.0018,31.5825,266.9358,93.1489,-7.166e-06,-1.78e-06,0.0,0 STARLINK-5318,1 55304U 23010AM  24082.88606958 -.00000178  00000-0 -71660-5 0  9992,2 55304  70.0018  31.5825 0002722 266.9358  93.1489 14.98321568 65597,6950.219,96.108,573.976,570.192,0.0
55304.0,STARLINK-5318,PAYLOAD,2024-03-22 22:52:04,14.98321206,0.0002713,70.0017,31.4142,268.1758,91.909,-1.2612e-05,-2.43e-06,0.0,0 STARLINK-5318,1 55304U 23010AM  24082.95283036 -.00000243  00000-0 -12612-4 0  9992,2 55304  70.0017  31.4142 0002713 268.1758  91.9090 14.98321206 65914,6950.22,96.108,573.971,570.199,0.0
55304.0,STARLINK-5318,PAYLOAD,2024-03-23 21:17:56,14.98336543,0.0002544,70.002,29.0573,267.3468,92.74,-5.7173e-05,-7.75e-06,0.0,0 STARLINK-5318,1 55304U 23010AM  24083.88746345 -.00000775  00000-0 -57173-4 0  9993,2 55304  70.0020  29.0573 0002544 267.3468  92.7400 14.98336543 65745,6950.173,96.107,573.806,570.27,0.0
55304.0,STARLINK-5318,PAYLOAD,2024-03-24 05:18:36,14.98342845,0.0002222,70.0037,28.2189,232.4256,127.6702,3.5877e-05,3.35e-06,0.0,0 STARLINK-5318,1 55304U 23010AM  24084.22125468  .00000335  00000-0  35877-4 0  9996,2 55304  70.0037  28.2189 0002222 232.4256 127.6702 14.98342845 65798,6950.153,96.106,573.562,570.474,0.0
55304.0,STARLINK-5318,PAYLOAD,2024-03-24 21:19:57,14.98327573,0.0002161,70.0052,26.5373,211.0035,149.0997,0.00013684,1.54e-05,0.0,0 STARLINK-5318,1 55304U 23010AM  24084.88886201  .00001540  00000-0  13684-3 0  9997,2 55304  70.0052  26.5373 0002161 211.0035 149.0997 14.98327573 65897,6950.2,96.107,573.567,570.563,0.0
55304.0,STARLINK-5318,PAYLOAD,2024-03-24 22:56:05,14.98327315,0.0002114,70.0043,26.3697,225.9764,134.1221,8.1321e-05,8.78e-06,0.0,0 STARLINK-5318,1 55304U 23010AM  24084.95562441  .00000878  00000-0  81321-4 0  9999,2 55304  70.0043  26.3697 0002114 225.9764 134.1221 14.98327315 66211,6950.201,96.107,573.535,570.597,0.0
55304.0,STARLINK-5318,PAYLOAD,2024-03-25 13:21:19,14.98317552,0.0002593,70.0028,24.849,271.7728,88.3134,-0.00015262,-1.913e-05,0.0,0 STARLINK-5318,1 55304U 23010AM  24085.55647604 -.00001913  00000-0 -15262-3 0  9994,2 55304  70.0028  24.8490 0002593 271.7728  88.3134 14.98317552 65997,6950.231,96.108,573.899,570.294,0.0
